CCSDS_OMM_VERS = 2.0
CREATION_DATE  = 
ORIGINATOR     = 

OBJECT_NAME    = SL-4 R/B
OBJECT_ID      = 2014-021B
CENTER_NAME    = EARTH
REF_FRAME      = TEME
TIME_SYSTEM    = UTC
MEAN_ELEMENT_THEORY = SGP/SGP4

EPOCH          = 2025-12-28T14:41:06.260064
MEAN_MOTION    = 15.37049894
ECCENTRICITY   = .01004656
INCLINATION    = 51.6088
RA_OF_ASC_NODE = 323.4367
ARG_OF_PERICENTER = 203.5378
MEAN_ANOMALY   = 156.0991

EPHEMERIS_TYPE = 0
CLASSIFICATION_TYPE = U
NORAD_CAT_ID   = 39679
ELEMENT_SET_NO = 999
REV_AT_EPOCH   = 64533
BSTAR          = .31275674E-3
MEAN_MOTION_DOT = .1324E-3
MEAN_MOTION_DDOT = 0

CCSDS_OMM_VERS = 2.0
CREATION_DATE  = 
ORIGINATOR     = 

OBJECT_NAME    = ALOS-2
OBJECT_ID      = 2014-029A
CENTER_NAME    = EARTH
REF_FRAME      = TEME
TIME_SYSTEM    = UTC
MEAN_ELEMENT_THEORY = SGP/SGP4

EPOCH          = 2025-12-28T13:39:33.395328
MEAN_MOTION    = 14.79482815
ECCENTRICITY   = .00015489
INCLINATION    = 97.9215
RA_OF_ASC_NODE = 97.1898
ARG_OF_PERICENTER = 98.5385
MEAN_ANOMALY   = 261.6003

EPHEMERIS_TYPE = 0
CLASSIFICATION_TYPE = U
NORAD_CAT_ID   = 39766
ELEMENT_SET_NO = 999
REV_AT_EPOCH   = 62635
BSTAR          = .94451822E-3
MEAN_MOTION_DOT = .7011E-4
MEAN_MOTION_DDOT = 0

CCSDS_OMM_VERS = 2.0
CREATION_DATE  = 
ORIGINATOR     = 

OBJECT_NAME    = YAOGAN-29
OBJECT_ID      = 2015-069A
CENTER_NAME    = EARTH
REF_FRAME      = TEME
TIME_SYSTEM    = UTC
MEAN_ELEMENT_THEORY = SGP/SGP4

EPOCH          = 2025-12-28T14:37:15.673152
MEAN_MOTION    = 14.82898583
ECCENTRICITY   = .00010773
INCLINATION    = 98.0211
RA_OF_ASC_NODE = 25.8306
ARG_OF_PERICENTER = 158.2829
MEAN_ANOMALY   = 201.8431

EPHEMERIS_TYPE = 0
CLASSIFICATION_TYPE = U
NORAD_CAT_ID   = 41038
ELEMENT_SET_NO = 999
REV_AT_EPOCH   = 54534
BSTAR          = .36993829E-4
MEAN_MOTION_DOT = .246E-5
MEAN_MOTION_DDOT = 0

CCSDS_OMM_VERS = 2.0
CREATION_DATE  = 
ORIGINATOR     = 

OBJECT_NAME    = ASTRO-H (HITOMI)
OBJECT_ID      = 2016-012A
CENTER_NAME    = EARTH
REF_FRAME      = TEME
TIME_SYSTEM    = UTC
MEAN_ELEMENT_THEORY = SGP/SGP4

EPOCH          = 2025-12-28T15:03:15.029856
MEAN_MOTION    = 15.09461267
ECCENTRICITY   = .00096492
INCLINATION    = 30.9995
RA_OF_ASC_NODE = 94.9393
ARG_OF_PERICENTER = 338.0410
MEAN_ANOMALY   = 21.9814

EPHEMERIS_TYPE = 0
CLASSIFICATION_TYPE = U
NORAD_CAT_ID   = 41337
ELEMENT_SET_NO = 999
REV_AT_EPOCH   = 54148
BSTAR          = .28428139E-3
MEAN_MOTION_DOT = .4762E-4
MEAN_MOTION_DDOT = 0

CCSDS_OMM_VERS = 2.0
CREATION_DATE  = 
ORIGINATOR     = 

OBJECT_NAME    = HXMT (HUIYAN)
OBJECT_ID      = 2017-034A
CENTER_NAME    = EARTH
REF_FRAME      = TEME
TIME_SYSTEM    = UTC
MEAN_ELEMENT_THEORY = SGP/SGP4

EPOCH          = 2025-12-28T14:24:14.714784
MEAN_MOTION    = 15.16432294
ECCENTRICITY   = .00316129
INCLINATION    = 43.0147
RA_OF_ASC_NODE = 51.6040
ARG_OF_PERICENTER = 147.2305
MEAN_ANOMALY   = 213.0512

EPHEMERIS_TYPE = 0
CLASSIFICATION_TYPE = U
NORAD_CAT_ID   = 42758
ELEMENT_SET_NO = 999
REV_AT_EPOCH   = 47174
BSTAR          = .44896634E-3
MEAN_MOTION_DOT = .8771E-4
MEAN_MOTION_DDOT = 0

CCSDS_OMM_VERS = 2.0
CREATION_DATE  = 
ORIGINATOR     = 

OBJECT_NAME    = CZ-2C R/B
OBJECT_ID      = 2018-054D
CENTER_NAME    = EARTH
REF_FRAME      = TEME
TIME_SYSTEM    = UTC
MEAN_ELEMENT_THEORY = SGP/SGP4

EPOCH          = 2025-12-28T12:13:50.269440
MEAN_MOTION    = 15.77586265
ECCENTRICITY   = .00139282
INCLINATION    = 35.1327
RA_OF_ASC_NODE = 73.6902
ARG_OF_PERICENTER = 300.0344
MEAN_ANOMALY   = 59.9008

EPHEMERIS_TYPE = 0
CLASSIFICATION_TYPE = U
NORAD_CAT_ID   = 43521
ELEMENT_SET_NO = 999
REV_AT_EPOCH   = 41754
BSTAR          = .88895813E-3
MEAN_MOTION_DOT = .157696E-2
MEAN_MOTION_DDOT = 0

CCSDS_OMM_VERS = 2.0
CREATION_DATE  = 
ORIGINATOR     = 

OBJECT_NAME    = SAOCOM 1A
OBJECT_ID      = 2018-076A
CENTER_NAME    = EARTH
REF_FRAME      = TEME
TIME_SYSTEM    = UTC
MEAN_ELEMENT_THEORY = SGP/SGP4

EPOCH          = 2025-12-28T16:07:34.453920
MEAN_MOTION    = 14.82148538
ECCENTRICITY   = .00013526
INCLINATION    = 97.8847
RA_OF_ASC_NODE = 186.8619
ARG_OF_PERICENTER = 84.3287
MEAN_ANOMALY   = 275.8081

EPHEMERIS_TYPE = 0
CLASSIFICATION_TYPE = U
NORAD_CAT_ID   = 43641
ELEMENT_SET_NO = 999
REV_AT_EPOCH   = 39084
BSTAR          = .19792115E-4
MEAN_MOTION_DOT = .105E-5
MEAN_MOTION_DDOT = 0

CCSDS_OMM_VERS = 2.0
CREATION_DATE  = 
ORIGINATOR     = 

OBJECT_NAME    = H-2A R/B
OBJECT_ID      = 2018-084L
CENTER_NAME    = EARTH
REF_FRAME      = TEME
TIME_SYSTEM    = UTC
MEAN_ELEMENT_THEORY = SGP/SGP4

EPOCH          = 2025-12-28T12:08:06.141696
MEAN_MOTION    = 15.37976102
ECCENTRICITY   = .00263619
INCLINATION    = 98.8770
RA_OF_ASC_NODE = 199.8595
ARG_OF_PERICENTER = 271.1951
MEAN_ANOMALY   = 88.6269

EPHEMERIS_TYPE = 0
CLASSIFICATION_TYPE = U
NORAD_CAT_ID   = 43682
ELEMENT_SET_NO = 999
REV_AT_EPOCH   = 39482
BSTAR          = .70282382E-3
MEAN_MOTION_DOT = .26517E-3
MEAN_MOTION_DDOT = 0

CCSDS_OMM_VERS = 2.0
CREATION_DATE  = 
ORIGINATOR     = 

OBJECT_NAME    = SAOCOM 1B
OBJECT_ID      = 2020-059A
CENTER_NAME    = EARTH
REF_FRAME      = TEME
TIME_SYSTEM    = UTC
MEAN_ELEMENT_THEORY = SGP/SGP4

EPOCH          = 2025-12-28T15:15:21.412800
MEAN_MOTION    = 14.82155680
ECCENTRICITY   = .00014587
INCLINATION    = 97.8846
RA_OF_ASC_NODE = 185.9259
ARG_OF_PERICENTER = 85.5591
MEAN_ANOMALY   = 274.5789

EPHEMERIS_TYPE = 0
CLASSIFICATION_TYPE = U
NORAD_CAT_ID   = 46265
ELEMENT_SET_NO = 999
REV_AT_EPOCH   = 28822
BSTAR          = .75217603E-4
MEAN_MOTION_DOT = .547E-5
MEAN_MOTION_DDOT = 0

CCSDS_OMM_VERS = 2.0
CREATION_DATE  = 
ORIGINATOR     = 

OBJECT_NAME    = CSS (TIANHE)
OBJECT_ID      = 2021-035A
CENTER_NAME    = EARTH
REF_FRAME      = TEME
TIME_SYSTEM    = UTC
MEAN_ELEMENT_THEORY = SGP/SGP4

EPOCH          = 2025-12-28T11:14:34.336608
MEAN_MOTION    = 15.59804684
ECCENTRICITY   = .00090506
INCLINATION    = 41.4673
RA_OF_ASC_NODE = 281.1738
ARG_OF_PERICENTER = 167.6294
MEAN_ANOMALY   = 192.4768

EPHEMERIS_TYPE = 0
CLASSIFICATION_TYPE = U
NORAD_CAT_ID   = 48274
ELEMENT_SET_NO = 999
REV_AT_EPOCH   = 26648
BSTAR          = .27475522E-3
MEAN_MOTION_DOT = .22448E-3
MEAN_MOTION_DDOT = 0

CCSDS_OMM_VERS = 2.0
CREATION_DATE  = 
ORIGINATOR     = 

OBJECT_NAME    = COSMOS 2550
OBJECT_ID      = 2021-056A
CENTER_NAME    = EARTH
REF_FRAME      = TEME
TIME_SYSTEM    = UTC
MEAN_ELEMENT_THEORY = SGP/SGP4

EPOCH          = 2025-12-28T01:11:45.246336
MEAN_MOTION    = 15.33830504
ECCENTRICITY   = .00083728
INCLINATION    = 67.1448
RA_OF_ASC_NODE = 257.6258
ARG_OF_PERICENTER = 269.7459
MEAN_ANOMALY   = 90.2736

EPHEMERIS_TYPE = 0
CLASSIFICATION_TYPE = U
NORAD_CAT_ID   = 48865
ELEMENT_SET_NO = 999
REV_AT_EPOCH   = 25247
BSTAR          = .1296151E-5
MEAN_MOTION_DOT = -.149E-5
MEAN_MOTION_DDOT = 0

CCSDS_OMM_VERS = 2.0
CREATION_DATE  = 
ORIGINATOR     = 

OBJECT_NAME    = CZ-2C R/B
OBJECT_ID      = 2022-058K
CENTER_NAME    = EARTH
REF_FRAME      = TEME
TIME_SYSTEM    = UTC
MEAN_ELEMENT_THEORY = SGP/SGP4

EPOCH          = 2025-12-28T06:58:23.761056
MEAN_MOTION    = 15.49329420
ECCENTRICITY   = .0044355
INCLINATION    = 50.1925
RA_OF_ASC_NODE = 324.1990
ARG_OF_PERICENTER = 262.4097
MEAN_ANOMALY   = 97.1832

EPHEMERIS_TYPE = 0
CLASSIFICATION_TYPE = U
NORAD_CAT_ID   = 52794
ELEMENT_SET_NO = 999
REV_AT_EPOCH   = 19904
BSTAR          = .70496E-3
MEAN_MOTION_DOT = .40673E-3
MEAN_MOTION_DDOT = 0

