SL-4 R/B                
1 39679U 14021B   25362.61187801  .00013240  00000+0  31276-3 0  9993
2 39679  51.6088 323.4367 0100465 203.5378 156.0991 15.37049894645338
ALOS-2                  
1 39766U 14029A   25362.56913652  .00007011  00000+0  94452-3 0  9997
2 39766  97.9215  97.1898 0001548  98.5385 261.6003 14.79482815626353
YAOGAN-29               
1 41038U 15069A   25362.60920918  .00000246  00000+0  36994-4 0  9996
2 41038  98.0211  25.8306 0001077 158.2829 201.8431 14.82898583545349
ASTRO-H (HITOMI)        
1 41337U 16012A   25362.62725729  .00004762  00000+0  28428-3 0  9991
2 41337  30.9995  94.9393 0009649 338.0410  21.9814 15.09461267541487
HXMT (HUIYAN)           
1 42758U 17034A   25362.60017031  .00008771  00000+0  44897-3 0  9994
2 42758  43.0147  51.6040 0031612 147.2305 213.0512 15.16432294471742
CZ-2C R/B               
1 43521U 18054D   25362.50960960  .00157696  00000+0  88896-3 0  9991
2 43521  35.1327  73.6902 0013928 300.0344  59.9008 15.77586265417546
SAOCOM 1A               
1 43641U 18076A   25362.67192655  .00000105  00000+0  19792-4 0  9996
2 43641  97.8847 186.8619 0001352  84.3287 275.8081 14.82148538390844
H-2A R/B                
1 43682U 18084L   25362.50562664  .00026517  00000+0  70282-3 0  9998
2 43682  98.8770 199.8595 0026361 271.1951  88.6269 15.37976102394820
SAOCOM 1B               
1 46265U 20059A   25362.63566450  .00000547  00000+0  75218-4 0  9994
2 46265  97.8846 185.9259 0001458  85.5591 274.5789 14.82155680288221
CSS (TIANHE)            
1 48274U 21035A   25362.46845297  .00022448  00000+0  27476-3 0  9997
2 48274  41.4673 281.1738 0009050 167.6294 192.4768 15.59804684266484
COSMOS 2550             
1 48865U 21056A   25362.04982924 -.00000149  00000+0  12962-5 0  9990
2 48865  67.1448 257.6258 0008372 269.7459  90.2736 15.33830504252479
CZ-2C R/B               
1 52794U 22058K   25362.29055279  .00040673  00000+0  70496-3 0  9999
2 52794  50.1925 324.1990 0044355 262.4097  97.1832 15.49329420199042
